[{"OBJECT_NAME":"STARLINK-35867","OBJECT_ID":"2025-278A","EPOCH":"2026-03-09T19:34:56.492832","MEAN_MOTION":15.2759637,"ECCENTRICITY":0.0001499,"INCLINATION":43.0007,"RA_OF_ASC_NODE":114.0738,"ARG_OF_PERICENTER":279.4001,"MEAN_ANOMALY":80.6681,"EPHEMERIS_TYPE":0,"CLASSIFICATION_TYPE":"U","NORAD_CAT_ID":66791,"ELEMENT_SET_NO":999,"REV_AT_EPOCH":1522,"BSTAR":0.0012254482,"MEAN_MOTION_DOT":0.0003363,"MEAN_MOTION_DDOT":0},{"OBJECT_NAME":"COSMOS 1862","OBJECT_ID":"1987-055A","EPOCH":"2026-03-09T22:37:02.390592","MEAN_MOTION":15.30492139,"ECCENTRICITY":0.00097484,"INCLINATION":82.4856,"RA_OF_ASC_NODE":47.1862,"ARG_OF_PERICENTER":26.6325,"MEAN_ANOMALY":333.5414,"EPHEMERIS_TYPE":0,"CLASSIFICATION_TYPE":"U","NORAD_CAT_ID":18152,"ELEMENT_SET_NO":999,"REV_AT_EPOCH":8987,"BSTAR":0.00034125048,"MEAN_MOTION_DOT":0.00010107,"MEAN_MOTION_DDOT":0}]
